SIRION PATHFINDER-2     
1 43759U 18099B   26139.10897072  .00002947  00000+0  16457-3 0  9997
2 43759  97.4267 188.8605 0009861  49.4231 310.7858 15.14255255408221
CORVUS BC4              
1 43767U 18099K   26139.87037852  .00003285  00000+0  19356-3 0  9999
2 43767  97.4085 183.6820 0010067  98.8246 261.4126 15.12237337408122
M2 PATHFINDER           
1 45727U 20037E   26139.78257526  .00001010  00000+0  76609-4 0  9993
2 45727  97.8159 330.6972 0009965 245.4969 114.5217 15.04537414321229
NETSAT-4                
1 46504U 20068U   26139.92123690  .00013111  00000+0  30093-3 0  9992
2 46504  97.8613 145.9141 0007360  72.0288 288.1760 15.42835260311411
NETSAT-3                
1 46505U 20068V   26139.97032756  .00014502  00000+0  34632-3 0  9998
2 46505  97.8665 144.2200 0007455  84.7945 275.4151 15.41613605311332
NETSAT-1                
1 46506U 20068W   26139.96068397  .00009635  00000+0  29636-3 0  9997
2 46506  97.8752 138.8676 0006991 104.5342 255.6675 15.33884394310978
NETSAT-2                
1 46507U 20068X   26139.93289003  .00017131  00000+0  36879-3 0  9991
2 46507  97.8630 145.7245 0006258  94.9408 265.2554 15.44683915311370
GREENCUBE (IO-117)      
1 53109U 22080E   26139.39156274 -.00000003  00000+0  00000+0 0  9990
2 53109  70.1431 308.2634 0008839 296.5004  63.4749  6.42583330 90215
SITRO-AIS 5 (KATYS)     
1 57176U 23091L   26139.93067377  .00008782  00000+0  31652-3 0  9998
2 57176  97.5070 203.5745 0011402 194.0849 166.0074 15.28732764160023
SITRO-AIS 6 (CHIRKIN)   
1 57192U 23091AC  26139.91118126  .00007101  00000+0  28412-3 0  9997
2 57192  97.5078 202.8210 0011530 197.5853 162.4988 15.25336305159977
SITRO-AIS 8 (ANOKHIN)   
1 57193U 23091AD  26139.93060050  .00010447  00000+0  34767-3 0  9999
2 57193  97.5066 205.0511 0010701 189.6289 170.4749 15.31284981160120
SITRO-AIS 7 (FARTUSHNIY)
1 57194U 23091AE  26139.97428573  .00006939  00000+0  28020-3 0  9998
2 57194  97.5075 202.7236 0011350 198.3963 161.6865 15.25039116159979
SITRO-AIS 10 (BURDAEV)  
1 57199U 23091AK  26139.94791740  .00015510  00000+0  42414-3 0  9997
2 57199  97.5089 209.8391 0007647 163.2302 196.9197 15.37434202160420
SITRO-AIS 9 (SHCHUKIN)  
1 57201U 23091AM  26139.96567872  .00014748  00000+0  40937-3 0  9990
2 57201  97.5086 209.6086 0007862 163.7520 196.3977 15.36978181160413
SITRO-AIS 12 (SMIRENNIY)
1 57204U 23091AQ  26139.96157837  .00015017  00000+0  41301-3 0  9995
2 57204  97.5100 210.0541 0007640 158.2215 201.9355 15.37263555160437
SITRO-AIS 11 (SHEFFER)  
1 57208U 23091AU  26139.91746943  .00015468  00000+0  41995-3 0  9995
2 57208  97.5097 210.2382 0007545 158.1882 201.9686 15.37659462160448
SITRO-AIS 25            
1 59066U 24039R   26139.96690822  .00003279  00000+0  25546-3 0  9992
2 59066  95.3917 215.7026 0147247  67.1944 294.4759 14.93305258120510
SITRO-AIS 26            
1 59067U 24039S   26139.96447100  .00003242  00000+0  25372-3 0  9999
2 59067  95.3917 215.6042 0147564  67.7493 293.9308 14.93106999120509
SITRO-AIS 27            
1 59068U 24039T   26139.94257450  .00003204  00000+0  24874-3 0  9999
2 59068  95.3918 215.8479 0146505  66.5154 295.1391 14.93516661120521
SITRO-AIS 28            
1 59071U 24039U   26139.98765924  .00002757  00000+0  21427-3 0  9990
2 59071  95.3920 215.9247 0146409  66.1858 295.4638 14.93553238120531
GRBBETA                 
1 60237U 24128C   26139.81216549  .00002903  00000+0  20657-3 0  9998
2 60237  61.9903 315.8018 0044531 128.7809 231.7275 15.06380239101990
OOV-CUBE (TUBSAT-30)    
1 60240U 24128F   26139.90806354  .00001605  00000+0  13289-3 0  9992
2 60240  61.9944 324.1704 0048177 127.6044 232.9436 15.02612469101860
ROBUSTA-3A (MEDITERRAN*)
1 60243U 24128J   26139.88584665  .00005987  00000+0  35934-3 0  9998
2 60243  61.9869 308.2934 0045333 122.6430 237.9052 15.11183227102148
LASARSAT                
1 62391U 24247Q   26139.21153896  .00019872  00000+0  42671-3 0  9995
2 62391  44.9757  64.7984 0005508 164.9742 195.1311 15.44422390 78839
CROCUBE                 
1 62394U 24247T   26139.82378561  .00028316  00000+0  57089-3 0  9995
2 62394  44.9734  59.1307 0005415 172.8847 187.2120 15.46082351 78959
FORESAIL-1 PRIME        
1 66778U 25276DS  26139.66211814  .00003039  00000+0  15099-3 0  9997
2 66778  97.4205 213.4600 0002444 166.7371 193.3928 15.18409334 26072
KNACKSAT-2              
1 67683U 98067XZ  26139.56202841  .00034272  00000+0  46414-3 0  9998
2 67683  51.6305  78.1668 0012127  94.1366 266.1012 15.57281514 15812
