OBJECT_NAME,OBJECT_ID,EPOCH,MEAN_MOTION,ECCENTRICITY,INCLINATION,RA_OF_ASC_NODE,ARG_OF_PERICENTER,MEAN_ANOMALY,EPHEMERIS_TYPE,CLASSIFICATION_TYPE,NORAD_CAT_ID,ELEMENT_SET_NO,REV_AT_EPOCH,BSTAR,MEAN_MOTION_DOT,MEAN_MOTION_DDOT
SIRION PATHFINDER-2,2018-099B,2026-05-19T02:36:55.070208,15.14255255,.00098611,97.4267,188.8605,49.4231,310.7858,0,U,43759,999,40822,.16456909E-3,.2947E-4,0
CORVUS BC4,2018-099K,2026-05-19T20:53:20.704128,15.12237337,.00100676,97.4085,183.6820,98.8246,261.4126,0,U,43767,999,40812,.19355688E-3,.3285E-4,0
M2 PATHFINDER,2020-037E,2026-05-19T18:46:54.502464,15.04537414,.00099656,97.8159,330.6972,245.4969,114.5217,0,U,45727,999,32122,.7660919E-4,.101E-4,0
NETSAT-4,2020-068U,2026-05-19T22:06:34.868160,15.42835260,.00073605,97.8613,145.9141,72.0288,288.1760,0,U,46504,999,31141,.30092872E-3,.13111E-3,0
NETSAT-3,2020-068V,2026-05-19T23:17:16.301184,15.41613605,.00074552,97.8665,144.2200,84.7945,275.4151,0,U,46505,999,31133,.34632255E-3,.14502E-3,0
NETSAT-1,2020-068W,2026-05-19T23:03:23.095008,15.33884394,.0006991,97.8752,138.8676,104.5342,255.6675,0,U,46506,999,31097,.29636422E-3,.9635E-4,0
NETSAT-2,2020-068X,2026-05-19T22:23:21.698592,15.44683915,.00062584,97.8630,145.7245,94.9408,265.2554,0,U,46507,999,31137,.36879424E-3,.17131E-3,0
GREENCUBE (IO-117),2022-080E,2026-05-19T09:23:51.020736,6.42583330,.00088396,70.1431,308.2634,296.5004,63.4749,0,U,53109,999,9021,0,-.3E-7,0
SITRO-AIS 5 (KATYS),2023-091L,2026-05-19T22:20:10.213728,15.28732764,.0011402,97.5070,203.5745,194.0849,166.0074,0,U,57176,999,16002,.31651967E-3,.8782E-4,0
SITRO-AIS 6 (CHIRKIN),2023-091AC,2026-05-19T21:52:06.060864,15.25336305,.001153,97.5078,202.8210,197.5853,162.4988,0,U,57192,999,15997,.28412493E-3,.7101E-4,0
SITRO-AIS 8 (ANOKHIN),2023-091AD,2026-05-19T22:20:03.883200,15.31284981,.00107014,97.5066,205.0511,189.6289,170.4749,0,U,57193,999,16012,.34767316E-3,.10447E-3,0
SITRO-AIS 7 (FARTUSHNIY),2023-091AE,2026-05-19T23:22:58.287072,15.25039116,.00113508,97.5075,202.7236,198.3963,161.6865,0,U,57194,999,15997,.28019551E-3,.6939E-4,0
SITRO-AIS 10 (BURDAEV),2023-091AK,2026-05-19T22:45:00.063360,15.37434202,.00076476,97.5089,209.8391,163.2302,196.9197,0,U,57199,999,16042,.42414068E-3,.1551E-3,0
SITRO-AIS 9 (SHCHUKIN),2023-091AM,2026-05-19T23:10:34.641408,15.36978181,.00078627,97.5086,209.6086,163.7520,196.3977,0,U,57201,999,16041,.40936828E-3,.14748E-3,0
SITRO-AIS 12 (SMIRENNIY),2023-091AQ,2026-05-19T23:04:40.371168,15.37263555,.00076405,97.5100,210.0541,158.2215,201.9355,0,U,57204,999,16043,.41300984E-3,.15017E-3,0
SITRO-AIS 11 (SHEFFER),2023-091AU,2026-05-19T22:01:09.358752,15.37659462,.00075457,97.5097,210.2382,158.1882,201.9686,0,U,57208,999,16044,.4199503E-3,.15468E-3,0
SITRO-AIS 25,2024-039R,2026-05-19T23:12:20.870208,14.93305258,.0147247,95.3917,215.7026,67.1944,294.4759,0,U,59066,999,12051,.2554617E-3,.3279E-4,0
SITRO-AIS 26,2024-039S,2026-05-19T23:08:50.294400,14.93106999,.01475647,95.3917,215.6042,67.7493,293.9308,0,U,59067,999,12050,.25371923E-3,.3242E-4,0
SITRO-AIS 27,2024-039T,2026-05-19T22:37:18.436800,14.93516661,.01465057,95.3918,215.8479,66.5154,295.1391,0,U,59068,999,12052,.24874013E-3,.3204E-4,0
SITRO-AIS 28,2024-039U,2026-05-19T23:42:13.758336,14.93553238,.01464099,95.3920,215.9247,66.1858,295.4638,0,U,59071,999,12053,.21427342E-3,.2757E-4,0
GRBBETA,2024-128C,2026-05-19T19:29:31.098336,15.06380239,.00445314,61.9903,315.8018,128.7809,231.7275,0,U,60237,999,10199,.20656614E-3,.2903E-4,0
OOV-CUBE (TUBSAT-30),2024-128F,2026-05-19T21:47:36.689856,15.02612469,.00481771,61.9944,324.1704,127.6044,232.9436,0,U,60240,999,10186,.13288873E-3,.1605E-4,0
ROBUSTA-3A (MEDITERRANEE),2024-128J,2026-05-19T21:15:37.150560,15.11183227,.0045333,61.9869,308.2934,122.6430,237.9052,0,U,60243,999,10214,.359344E-3,.5987E-4,0
LASARSAT,2024-247Q,2026-05-19T05:04:36.966144,15.44422390,.0005508,44.9757,64.7984,164.9742,195.1311,0,U,62391,999,7883,.42671E-3,.19872E-3,0
CROCUBE,2024-247T,2026-05-19T19:46:15.076704,15.46082351,.0005415,44.9734,59.1307,172.8847,187.2120,0,U,62394,999,7895,.57088518E-3,.28316E-3,0
FORESAIL-1 PRIME,2025-276DS,2026-05-19T15:53:27.007296,15.18409334,.00024446,97.4205,213.4600,166.7371,193.3928,0,U,66778,999,2607,.15098561E-3,.3039E-4,0
KNACKSAT-2,1998-067XZ,2026-05-19T13:29:19.254624,15.57281514,.00121276,51.6305,78.1668,94.1366,266.1012,0,U,67683,999,1581,.46414097E-3,.34272E-3,0
